{
  "norad_id": 59174,
  "name": "STARLINK-31283",
  "history": [
    {
      "epoch": "2026-04-11T20:00:01.000224Z",
      "apogee_km": 484.029599088135,
      "perigee_km": 482.26487678213743,
      "latitude_deg": 37.53317655438707,
      "longitude_deg": -142.12270432923242,
      "height_km": 485.935449649123,
      "semi_major_axis_km": 6861.284237935136,
      "eccentricity": 0.0001286,
      "inclination_deg": 43.0017,
      "raan_deg": 232.9379,
      "arg_perigee_deg": 277.7339,
      "mean_anomaly_deg": 199.3506,
      "mean_motion_rev_day": 15.27547225
    },
    {
      "epoch": "2026-04-13T06:00:02.000160Z",
      "apogee_km": 483.9890762655832,
      "perigee_km": 482.2443966654737,
      "latitude_deg": -2.1469950773148434,
      "longitude_deg": -68.80844090435504,
      "height_km": 483.3505427369286,
      "semi_major_axis_km": 6861.253736465528,
      "eccentricity": 0.00012714,
      "inclination_deg": 43.0016,
      "raan_deg": 224.9346,
      "arg_perigee_deg": 256.7455,
      "mean_anomaly_deg": 100.1951,
      "mean_motion_rev_day": 15.27557411
    },
    {
      "epoch": "2026-04-14T20:00:01.999008Z",
      "apogee_km": 483.9859484960198,
      "perigee_km": 482.17321507511133,
      "latitude_deg": 41.198484380058076,
      "longitude_deg": 141.9652452751443,
      "height_km": 486.67492785817274,
      "semi_major_axis_km": 6861.216581785565,
      "eccentricity": 0.0001321,
      "inclination_deg": 43.0023,
      "raan_deg": 215.9941,
      "arg_perigee_deg": 270.2339,
      "mean_anomaly_deg": 164.0847,
      "mean_motion_rev_day": 15.27569819
    },
    {
      "epoch": "2026-04-15T20:00:01.999008Z",
      "apogee_km": 483.95644176196674,
      "perigee_km": 482.15332053560087,
      "latitude_deg": -0.08966321041699239,
      "longitude_deg": -113.5560654649717,
      "height_km": 482.93304411536036,
      "semi_major_axis_km": 6861.191881148784,
      "eccentricity": 0.0001314,
      "inclination_deg": 43.0024,
      "raan_deg": 210.3464,
      "arg_perigee_deg": 275.835,
      "mean_anomaly_deg": 264.2255,
      "mean_motion_rev_day": 15.27578068
    },
    {
      "epoch": "2026-04-16T20:00:01.999008Z",
      "apogee_km": 483.98093654038985,
      "perigee_km": 482.1105781207407,
      "latitude_deg": -41.18166676428828,
      "longitude_deg": -9.18197446230821,
      "height_km": 494.65347935684343,
      "semi_major_axis_km": 6861.1827573305645,
      "eccentricity": 0.0001363,
      "inclination_deg": 43.0022,
      "raan_deg": 204.6988,
      "arg_perigee_deg": 277.656,
      "mean_anomaly_deg": 8.1326,
      "mean_motion_rev_day": 15.27581115
    },
    {
      "epoch": "2026-04-17T22:00:01.999584Z",
      "apogee_km": 483.9669305122379,
      "perigee_km": 482.0368921364825,
      "latitude_deg": 31.458098386793765,
      "longitude_deg": 161.80551844649517,
      "height_km": 484.5597367465068,
      "semi_major_axis_km": 6861.1389113243595,
      "eccentricity": 0.00014065,
      "inclination_deg": 43.002,
      "raan_deg": 198.5798,
      "arg_perigee_deg": 270.4504,
      "mean_anomaly_deg": 219.8672,
      "mean_motion_rev_day": 15.27595758
    },
    {
      "epoch": "2026-04-18T20:00:01.000224Z",
      "apogee_km": 484.21750904176224,
      "perigee_km": 481.9464455602756,
      "latitude_deg": 27.731289105382672,
      "longitude_deg": -167.64530343682952,
      "height_km": 484.0334938773555,
      "semi_major_axis_km": 6861.218977301019,
      "eccentricity": 0.0001655,
      "inclination_deg": 43.0014,
      "raan_deg": 193.4036,
      "arg_perigee_deg": 266.7527,
      "mean_anomaly_deg": 230.4213,
      "mean_motion_rev_day": 15.27569019
    },
    {
      "epoch": "2026-04-19T20:00:01.999008Z",
      "apogee_km": 484.07140725007594,
      "perigee_km": 481.95817249879474,
      "latitude_deg": -37.55608556862997,
      "longitude_deg": -85.10443205587325,
      "height_km": 493.1319456480458,
      "semi_major_axis_km": 6861.151789874435,
      "eccentricity": 0.000154,
      "inclination_deg": 43.0008,
      "raan_deg": 187.756,
      "arg_perigee_deg": 271.9378,
      "mean_anomaly_deg": 330.9745,
      "mean_motion_rev_day": 15.27591457
    },
    {
      "epoch": "2026-04-20T14:00:03.000384Z",
      "apogee_km": 484.06260990366354,
      "perigee_km": 482.1244495036317,
      "latitude_deg": 32.78652189310226,
      "longitude_deg": 168.2237798359349,
      "height_km": 484.8884063623976,
      "semi_major_axis_km": 6861.230529703647,
      "eccentricity": 0.00014124,
      "inclination_deg": 43.0005,
      "raan_deg": 183.5219,
      "arg_perigee_deg": 271.9499,
      "mean_anomaly_deg": 140.3486,
      "mean_motion_rev_day": 15.27565161
    },
    {
      "epoch": "2026-04-21T20:00:01.999008Z",
      "apogee_km": 484.10646000971064,
      "perigee_km": 481.90540535690707,
      "latitude_deg": 42.99880072062207,
      "longitude_deg": 122.59872911590902,
      "height_km": 487.2221620401221,
      "semi_major_axis_km": 6861.142932683309,
      "eccentricity": 0.0001604,
      "inclination_deg": 43.0002,
      "raan_deg": 176.4597,
      "arg_perigee_deg": 272.2188,
      "mean_anomaly_deg": 182.2103,
      "mean_motion_rev_day": 15.27594415
    },
    {
      "epoch": "2026-04-22T20:00:03.000384Z",
      "apogee_km": 484.0122965698547,
      "perigee_km": 481.9649366858521,
      "latitude_deg": -13.75413805263738,
      "longitude_deg": -144.95850597041056,
      "height_km": 485.30317715203836,
      "semi_major_axis_km": 6861.125616627853,
      "eccentricity": 0.0001492,
      "inclination_deg": 43.0001,
      "raan_deg": 170.8116,
      "arg_perigee_deg": 276.1219,
      "mean_anomaly_deg": 284.0983,
      "mean_motion_rev_day": 15.27600198
    },
    {
      "epoch": "2026-04-23T14:00:04.000032Z",
      "apogee_km": 484.0894845812363,
      "perigee_km": 482.1751904360717,
      "latitude_deg": 6.516211391152068,
      "longitude_deg": 111.92951495877182,
      "height_km": 482.29642292153596,
      "semi_major_axis_km": 6861.269337508654,
      "eccentricity": 0.0001395,
      "inclination_deg": 43.0002,
      "raan_deg": 166.5781,
      "arg_perigee_deg": 279.6288,
      "mean_anomaly_deg": 89.9609,
      "mean_motion_rev_day": 15.27552201
    },
    {
      "epoch": "2026-04-24T20:00:01.999008Z",
      "apogee_km": 483.96395862571444,
      "perigee_km": 482.01951474173893,
      "latitude_deg": 32.44654129882779,
      "longitude_deg": 49.33417547537062,
      "height_km": 484.69434575017465,
      "semi_major_axis_km": 6861.128736683727,
      "eccentricity": 0.0001417,
      "inclination_deg": 43.0005,
      "raan_deg": 159.5163,
      "arg_perigee_deg": 274.3448,
      "mean_anomaly_deg": 137.2733,
      "mean_motion_rev_day": 15.27599156
    }
  ]
}